[{"OBJECT_NAME":"JILIN-1 GAOFEN 2D","OBJECT_ID":"2021-086A","EPOCH":"2026-03-09T21:43:54.183072","MEAN_MOTION":15.09714905,"ECCENTRICITY":0.00351294,"INCLINATION":97.632,"RA_OF_ASC_NODE":191.8747,"ARG_OF_PERICENTER":123.7982,"MEAN_ANOMALY":236.66,"EPHEMERIS_TYPE":0,"CLASSIFICATION_TYPE":"U","NORAD_CAT_ID":49256,"ELEMENT_SET_NO":999,"REV_AT_EPOCH":24573,"BSTAR":0.00040994132,"MEAN_MOTION_DOT":6.64e-5,"MEAN_MOTION_DDOT":0},{"OBJECT_NAME":"STARLINK-6119","OBJECT_ID":"2023-046AK","EPOCH":"2026-03-09T22:00:01.999584","MEAN_MOTION":15.103218,"ECCENTRICITY":0.000216,"INCLINATION":42.9993,"RA_OF_ASC_NODE":144.8202,"ARG_OF_PERICENTER":278.4603,"MEAN_ANOMALY":137.1254,"EPHEMERIS_TYPE":0,"CLASSIFICATION_TYPE":"U","NORAD_CAT_ID":56125,"ELEMENT_SET_NO":999,"REV_AT_EPOCH":577,"BSTAR":0.00029755128,"MEAN_MOTION_DOT":4.746e-5,"MEAN_MOTION_DDOT":0}]
